TITAN 4B R/B            
1 26474U 00047B   25323.60502446  .00003557  00000+0  23140-3 0  9998
2 26474  67.9904 349.8185 0040947 171.7693 188.4137 15.08548718376304
ENVISAT                 
1 27386U 02009A   25323.63361698  .00000164  00000+0  67095-4 0  9995
2 27386  98.3562 274.9642 0001247  81.7363  92.1607 14.38987118243348
IDEFIX & ARIANE 42P R/B 
1 27422U 02021B   25323.57816452  .00000372  00000+0  15808-3 0  9991
2 27422  98.5752 258.5739 0012259 146.9473 213.2479 14.30926265228274
AQUA                    
1 27424U 02022A   25323.64285780  .00001321  00000+0  27494-3 0  9995
2 27424  98.4002 284.1521 0000639  68.0184 105.2956 14.61730591252657
CZ-4B R/B               
1 27432U 02024C   25323.60440442  .00000074  00000+0  61198-4 0  9994
2 27432  98.9035  12.4530 0049691 336.7221 177.5452 14.14521137213671
MIDORI II (ADEOS-II)    
1 27597U 02056A   25323.61236361  .00000348  00000+0  15470-3 0  9990
2 27597  98.7599 276.4518 0001028  25.3516 334.7715 14.29183292194572
H-2A R/B                
1 27601U 02056E   25323.52003957  .00000347  00000+0  13596-3 0  9995
2 27601  98.3029 283.2061 0071168 129.2584 344.6208 14.33651634198321
CZ-4B R/B               
1 28059U 03049C   25323.48756680  .00000505  00000+0  12764-3 0  9991
2 28059  98.6769 309.1753 0047673 206.8399 153.0329 14.54879263170575
CZ-2C R/B               
1 28222U 04012C   25323.56468886  .00034127  00000+0  53427-3 0  9999
2 28222  97.7465  14.3077 0018380 359.5027   0.6204 15.53479317187125
SL-16 R/B               
1 28353U 04021B   25323.63967011  .00000308  00000+0  18509-3 0  9992
2 28353  70.9995 103.4389 0006326 224.1920 135.8698 14.14578249107279
CZ-4B R/B               
1 28415U 04035C   25323.56188805  .00008736  00000+0  32833-3 0  9993
2 28415  97.3637 354.2214 0033728   2.1445 357.9932 15.26862662163098
CZ-2C R/B               
1 28480U 04046B   25323.53865995  .00000198  00000+0  88213-4 0  9994
2 28480  98.1967 240.3615 0140565 120.3540 241.1627 14.26925917 92797
