CCSDS_OMM_VERS = 2.0
CREATION_DATE  = 
ORIGINATOR     = 

OBJECT_NAME    = TITAN 4B R/B
OBJECT_ID      = 2000-047B
CENTER_NAME    = EARTH
REF_FRAME      = TEME
TIME_SYSTEM    = UTC
MEAN_ELEMENT_THEORY = SGP/SGP4

EPOCH          = 2025-11-19T14:31:14.113344
MEAN_MOTION    = 15.08548718
ECCENTRICITY   = .00409478
INCLINATION    = 67.9904
RA_OF_ASC_NODE = 349.8185
ARG_OF_PERICENTER = 171.7693
MEAN_ANOMALY   = 188.4137

EPHEMERIS_TYPE = 0
CLASSIFICATION_TYPE = U
NORAD_CAT_ID   = 26474
ELEMENT_SET_NO = 999
REV_AT_EPOCH   = 37630
BSTAR          = .23139904E-3
MEAN_MOTION_DOT = .3557E-4
MEAN_MOTION_DDOT = 0

CCSDS_OMM_VERS = 2.0
CREATION_DATE  = 
ORIGINATOR     = 

OBJECT_NAME    = ENVISAT
OBJECT_ID      = 2002-009A
CENTER_NAME    = EARTH
REF_FRAME      = TEME
TIME_SYSTEM    = UTC
MEAN_ELEMENT_THEORY = SGP/SGP4

EPOCH          = 2025-11-19T15:12:24.507072
MEAN_MOTION    = 14.38987118
ECCENTRICITY   = .00012471
INCLINATION    = 98.3562
RA_OF_ASC_NODE = 274.9642
ARG_OF_PERICENTER = 81.7363
MEAN_ANOMALY   = 92.1607

EPHEMERIS_TYPE = 0
CLASSIFICATION_TYPE = U
NORAD_CAT_ID   = 27386
ELEMENT_SET_NO = 999
REV_AT_EPOCH   = 24334
BSTAR          = .6709475E-4
MEAN_MOTION_DOT = .164E-5
MEAN_MOTION_DDOT = 0

CCSDS_OMM_VERS = 2.0
CREATION_DATE  = 
ORIGINATOR     = 

OBJECT_NAME    = IDEFIX & ARIANE 42P R/B
OBJECT_ID      = 2002-021B
CENTER_NAME    = EARTH
REF_FRAME      = TEME
TIME_SYSTEM    = UTC
MEAN_ELEMENT_THEORY = SGP/SGP4

EPOCH          = 2025-11-19T13:52:33.414528
MEAN_MOTION    = 14.30926265
ECCENTRICITY   = .00122597
INCLINATION    = 98.5752
RA_OF_ASC_NODE = 258.5739
ARG_OF_PERICENTER = 146.9473
MEAN_ANOMALY   = 213.2479

EPHEMERIS_TYPE = 0
CLASSIFICATION_TYPE = U
NORAD_CAT_ID   = 27422
ELEMENT_SET_NO = 999
REV_AT_EPOCH   = 22827
BSTAR          = .15807767E-3
MEAN_MOTION_DOT = .372E-5
MEAN_MOTION_DDOT = 0

CCSDS_OMM_VERS = 2.0
CREATION_DATE  = 
ORIGINATOR     = 

OBJECT_NAME    = AQUA
OBJECT_ID      = 2002-022A
CENTER_NAME    = EARTH
REF_FRAME      = TEME
TIME_SYSTEM    = UTC
MEAN_ELEMENT_THEORY = SGP/SGP4

EPOCH          = 2025-11-19T15:25:42.913920
MEAN_MOTION    = 14.61730591
ECCENTRICITY   = .00006397
INCLINATION    = 98.4002
RA_OF_ASC_NODE = 284.1521
ARG_OF_PERICENTER = 68.0184
MEAN_ANOMALY   = 105.2956

EPHEMERIS_TYPE = 0
CLASSIFICATION_TYPE = U
NORAD_CAT_ID   = 27424
ELEMENT_SET_NO = 999
REV_AT_EPOCH   = 25265
BSTAR          = .27494356E-3
MEAN_MOTION_DOT = .1321E-4
MEAN_MOTION_DDOT = 0

CCSDS_OMM_VERS = 2.0
CREATION_DATE  = 
ORIGINATOR     = 

OBJECT_NAME    = CZ-4B R/B
OBJECT_ID      = 2002-024C
CENTER_NAME    = EARTH
REF_FRAME      = TEME
TIME_SYSTEM    = UTC
MEAN_ELEMENT_THEORY = SGP/SGP4

EPOCH          = 2025-11-19T14:30:20.541888
MEAN_MOTION    = 14.14521137
ECCENTRICITY   = .00496912
INCLINATION    = 98.9035
RA_OF_ASC_NODE = 12.4530
ARG_OF_PERICENTER = 336.7221
MEAN_ANOMALY   = 177.5452

EPHEMERIS_TYPE = 0
CLASSIFICATION_TYPE = U
NORAD_CAT_ID   = 27432
ELEMENT_SET_NO = 999
REV_AT_EPOCH   = 21367
BSTAR          = .61198077E-4
MEAN_MOTION_DOT = .74E-6
MEAN_MOTION_DDOT = 0

CCSDS_OMM_VERS = 2.0
CREATION_DATE  = 
ORIGINATOR     = 

OBJECT_NAME    = MIDORI II (ADEOS-II)
OBJECT_ID      = 2002-056A
CENTER_NAME    = EARTH
REF_FRAME      = TEME
TIME_SYSTEM    = UTC
MEAN_ELEMENT_THEORY = SGP/SGP4

EPOCH          = 2025-11-19T14:41:48.215904
MEAN_MOTION    = 14.29183292
ECCENTRICITY   = .00010282
INCLINATION    = 98.7599
RA_OF_ASC_NODE = 276.4518
ARG_OF_PERICENTER = 25.3516
MEAN_ANOMALY   = 334.7715

EPHEMERIS_TYPE = 0
CLASSIFICATION_TYPE = U
NORAD_CAT_ID   = 27597
ELEMENT_SET_NO = 999
REV_AT_EPOCH   = 19457
BSTAR          = .15469959E-3
MEAN_MOTION_DOT = .348E-5
MEAN_MOTION_DDOT = 0

CCSDS_OMM_VERS = 2.0
CREATION_DATE  = 
ORIGINATOR     = 

OBJECT_NAME    = H-2A R/B
OBJECT_ID      = 2002-056E
CENTER_NAME    = EARTH
REF_FRAME      = TEME
TIME_SYSTEM    = UTC
MEAN_ELEMENT_THEORY = SGP/SGP4

EPOCH          = 2025-11-19T12:28:51.418848
MEAN_MOTION    = 14.33651634
ECCENTRICITY   = .00711685
INCLINATION    = 98.3029
RA_OF_ASC_NODE = 283.2061
ARG_OF_PERICENTER = 129.2584
MEAN_ANOMALY   = 344.6208

EPHEMERIS_TYPE = 0
CLASSIFICATION_TYPE = U
NORAD_CAT_ID   = 27601
ELEMENT_SET_NO = 999
REV_AT_EPOCH   = 19832
BSTAR          = .13596263E-3
MEAN_MOTION_DOT = .347E-5
MEAN_MOTION_DDOT = 0

CCSDS_OMM_VERS = 2.0
CREATION_DATE  = 
ORIGINATOR     = 

OBJECT_NAME    = CZ-4B R/B
OBJECT_ID      = 2003-049C
CENTER_NAME    = EARTH
REF_FRAME      = TEME
TIME_SYSTEM    = UTC
MEAN_ELEMENT_THEORY = SGP/SGP4

EPOCH          = 2025-11-19T11:42:05.771520
MEAN_MOTION    = 14.54879263
ECCENTRICITY   = .00476732
INCLINATION    = 98.6769
RA_OF_ASC_NODE = 309.1753
ARG_OF_PERICENTER = 206.8399
MEAN_ANOMALY   = 153.0329

EPHEMERIS_TYPE = 0
CLASSIFICATION_TYPE = U
NORAD_CAT_ID   = 28059
ELEMENT_SET_NO = 999
REV_AT_EPOCH   = 17057
BSTAR          = .12763744E-3
MEAN_MOTION_DOT = .505E-5
MEAN_MOTION_DDOT = 0

CCSDS_OMM_VERS = 2.0
CREATION_DATE  = 
ORIGINATOR     = 

OBJECT_NAME    = CZ-2C R/B
OBJECT_ID      = 2004-012C
CENTER_NAME    = EARTH
REF_FRAME      = TEME
TIME_SYSTEM    = UTC
MEAN_ELEMENT_THEORY = SGP/SGP4

EPOCH          = 2025-11-19T13:33:09.117504
MEAN_MOTION    = 15.53479317
ECCENTRICITY   = .00183801
INCLINATION    = 97.7465
RA_OF_ASC_NODE = 14.3077
ARG_OF_PERICENTER = 359.5027
MEAN_ANOMALY   = 0.6204

EPHEMERIS_TYPE = 0
CLASSIFICATION_TYPE = U
NORAD_CAT_ID   = 28222
ELEMENT_SET_NO = 999
REV_AT_EPOCH   = 18712
BSTAR          = .53427489E-3
MEAN_MOTION_DOT = .34127E-3
MEAN_MOTION_DDOT = 0

CCSDS_OMM_VERS = 2.0
CREATION_DATE  = 
ORIGINATOR     = 

OBJECT_NAME    = SL-16 R/B
OBJECT_ID      = 2004-021B
CENTER_NAME    = EARTH
REF_FRAME      = TEME
TIME_SYSTEM    = UTC
MEAN_ELEMENT_THEORY = SGP/SGP4

EPOCH          = 2025-11-19T15:21:07.497504
MEAN_MOTION    = 14.14578249
ECCENTRICITY   = .00063266
INCLINATION    = 70.9995
RA_OF_ASC_NODE = 103.4389
ARG_OF_PERICENTER = 224.1920
MEAN_ANOMALY   = 135.8698

EPHEMERIS_TYPE = 0
CLASSIFICATION_TYPE = U
NORAD_CAT_ID   = 28353
ELEMENT_SET_NO = 999
REV_AT_EPOCH   = 10727
BSTAR          = .18509365E-3
MEAN_MOTION_DOT = .308E-5
MEAN_MOTION_DDOT = 0

CCSDS_OMM_VERS = 2.0
CREATION_DATE  = 
ORIGINATOR     = 

OBJECT_NAME    = CZ-4B R/B
OBJECT_ID      = 2004-035C
CENTER_NAME    = EARTH
REF_FRAME      = TEME
TIME_SYSTEM    = UTC
MEAN_ELEMENT_THEORY = SGP/SGP4

EPOCH          = 2025-11-19T13:29:07.127520
MEAN_MOTION    = 15.26862662
ECCENTRICITY   = .0033728
INCLINATION    = 97.3637
RA_OF_ASC_NODE = 354.2214
ARG_OF_PERICENTER = 2.1445
MEAN_ANOMALY   = 357.9932

EPHEMERIS_TYPE = 0
CLASSIFICATION_TYPE = U
NORAD_CAT_ID   = 28415
ELEMENT_SET_NO = 999
REV_AT_EPOCH   = 16309
BSTAR          = .32833107E-3
MEAN_MOTION_DOT = .8736E-4
MEAN_MOTION_DDOT = 0

CCSDS_OMM_VERS = 2.0
CREATION_DATE  = 
ORIGINATOR     = 

OBJECT_NAME    = CZ-2C R/B
OBJECT_ID      = 2004-046B
CENTER_NAME    = EARTH
REF_FRAME      = TEME
TIME_SYSTEM    = UTC
MEAN_ELEMENT_THEORY = SGP/SGP4

EPOCH          = 2025-11-19T12:55:40.219680
MEAN_MOTION    = 14.26925917
ECCENTRICITY   = .01405659
INCLINATION    = 98.1967
RA_OF_ASC_NODE = 240.3615
ARG_OF_PERICENTER = 120.3540
MEAN_ANOMALY   = 241.1627

EPHEMERIS_TYPE = 0
CLASSIFICATION_TYPE = U
NORAD_CAT_ID   = 28480
ELEMENT_SET_NO = 999
REV_AT_EPOCH   = 9279
BSTAR          = .88213476E-4
MEAN_MOTION_DOT = .198E-5
MEAN_MOTION_DDOT = 0

